{"type": "FeatureCollection", "features": [ {"type": "Feature", "properties": {"norad_id": 66496, "name": "STARLINK-35909", "group": "last-30-days", "lat": 24.460398415796426, "lon": -102.39347917035073, "alt_km": 411.3874156959919, "timestamp": "2025-12-15T20:48:52.612758+00:00", "meta": {"OBJECT_NAME": "STARLINK-35909", "OBJECT_ID": "2025-263M", "EPOCH": "2025-12-14T17:55:24.888576", "MEAN_MOTION": 15.50618537, "ECCENTRICITY": 0.00016145, "INCLINATION": 43.0003, "RA_OF_ASC_NODE": 113.3825, "ARG_OF_PERICENTER": 273.9995, "MEAN_ANOMALY": 86.068, "EPHEMERIS_TYPE": 0, "CLASSIFICATION_TYPE": "U", "NORAD_CAT_ID": 66496, "ELEMENT_SET_NO": 999, "REV_AT_EPOCH": 587, "BSTAR": 0.0012124212, "MEAN_MOTION_DOT": 0.00071539, "MEAN_MOTION_DDOT": 0}, "tle": {"line1": "1 66496U 25263M   25348.74681584  .00071539  00000+0  12124-2 0  9990", "line2": "2 66496  43.0003 113.3825 0001614 273.9995  86.0680 15.50618537  5871"}}, "geometry": {"type": "Point", "coordinates": [-102.39347917035073, 24.460398415796426]}}, {"type": "Feature", "properties": {"norad_id": 66497, "name": "STARLINK-35899", "group": "last-30-days", "lat": 23.168499920742693, "lon": -100.52338482442106, "alt_km": 411.1805066659026, "timestamp": "2025-12-15T20:48:52.612768+00:00", "meta": {"OBJECT_NAME": "STARLINK-35899", "OBJECT_ID": "2025-263N", "EPOCH": "2025-12-14T10:11:08.456352", "MEAN_MOTION": 15.50607173, "ECCENTRICITY": 0.00016015, "INCLINATION": 42.9981, "RA_OF_ASC_NODE": 115.261, "ARG_OF_PERICENTER": 257.0983, "MEAN_ANOMALY": 102.9698, "EPHEMERIS_TYPE": 0, "CLASSIFICATION_TYPE": "U", "NORAD_CAT_ID": 66497, "ELEMENT_SET_NO": 999, "REV_AT_EPOCH": 582, "BSTAR": 0.0013470224, "MEAN_MOTION_DOT": 0.00079569, "MEAN_MOTION_DDOT": 0}, "tle": {"line1": "1 66497U 25263N   25348.42440343  .00079569  00000+0  13470-2 0  9998", "line2": "2 66497  42.9981 115.2610 0001601 257.0983 102.9698 15.50607173  5820"}}, "geometry": {"type": "Point", "coordinates": [-100.52338482442106, 23.168499920742693]}}, {"type": "Feature", "properties": {"norad_id": 66498, "name": "STARLINK-35907", "group": "last-30-days", "lat": -32.182198808094654, "lon": 64.81799107436134, "alt_km": 445.3393854340484, "timestamp": "2025-12-15T20:48:52.612779+00:00", "meta": {"OBJECT_NAME": "STARLINK-35907", "OBJECT_ID": "2025-263P", "EPOCH": "2025-12-14T20:00:06.000192", "MEAN_MOTION": 15.40652465, "ECCENTRICITY": 0.00017894, "INCLINATION": 42.9998, "RA_OF_ASC_NODE": 113.257, "ARG_OF_PERICENTER": 285.4199, "MEAN_ANOMALY": 41.8856, "EPHEMERIS_TYPE": 0, "CLASSIFICATION_TYPE": "U", "NORAD_CAT_ID": 66498, "ELEMENT_SET_NO": 999, "REV_AT_EPOCH": 597, "BSTAR": 0.0020834317, "MEAN_MOTION_DOT": 0.00087594, "MEAN_MOTION_DDOT": 0}, "tle": {"line1": "1 66498U 25263P   25348.83340278  .00087594  00000+0  20834-2 0  9999", "line2": "2 66498  42.9998 113.2570 0001789 285.4199  41.8856 15.40652465  5979"}}, "geometry": {"type": "Point", "coordinates": [64.81799107436134, -32.182198808094654]}}, {"type": "Feature", "properties": {"norad_id": 66499, "name": "STARLINK-35816", "group": "last-30-days", "lat": -9.54288901946359, "lon": 96.81351917035875, "alt_km": 444.0053801628237, "timestamp": "2025-12-15T20:48:52.612789+00:00", "meta": {"OBJECT_NAME": "STARLINK-35816", "OBJECT_ID": "2025-263Q", "EPOCH": "2025-12-14T20:00:06.000192", "MEAN_MOTION": 15.40652262, "ECCENTRICITY": 0.00015682, "INCLINATION": 42.9998, "RA_OF_ASC_NODE": 113.1666, "ARG_OF_PERICENTER": 283.2065, "MEAN_ANOMALY": 81.432, "EPHEMERIS_TYPE": 0, "CLASSIFICATION_TYPE": "U", "NORAD_CAT_ID": 66499, "ELEMENT_SET_NO": 999, "REV_AT_EPOCH": 597, "BSTAR": 0.0020122266, "MEAN_MOTION_DOT": 0.00084555, "MEAN_MOTION_DDOT": 0}, "tle": {"line1": "1 66499U 25263Q   25348.83340278  .00084555  00000+0  20122-2 0  9994", "line2": "2 66499  42.9998 113.1666 0001568 283.2065  81.4320 15.40652262  5979"}}, "geometry": {"type": "Point", "coordinates": [96.81351917035875, -9.54288901946359]}}, {"type": "Feature", "properties": {"norad_id": 66500, "name": "STARLINK-35894", "group": "last-30-days", "lat": -26.5454143518378, "lon": -40.067880307982215, "alt_km": 480.3516936969172, "timestamp": "2025-12-15T20:48:52.612800+00:00", "meta": {"OBJECT_NAME": "STARLINK-35894", "OBJECT_ID": "2025-263R", "EPOCH": "2025-12-14T20:00:06.000192", "MEAN_MOTION": 15.32902045, "ECCENTRICITY": 0.00014099, "INCLINATION": 42.9998, "RA_OF_ASC_NODE": 113.3849, "ARG_OF_PERICENTER": 285.8586, "MEAN_ANOMALY": 349.8986, "EPHEMERIS_TYPE": 0, "CLASSIFICATION_TYPE": "U", "NORAD_CAT_ID": 66500, "ELEMENT_SET_NO": 999, "REV_AT_EPOCH": 597, "BSTAR": -0.057715439, "MEAN_MOTION_DOT": -0.01695789, "MEAN_MOTION_DDOT": 0}, "tle": {"line1": "1 66500U 25263R   25348.83340278 -.01695789  00000+0 -57715-1 0  9994", "line2": "2 66500  42.9998 113.3849 0001409 285.8586 349.8986 15.32902045  5974"}}, "geometry": {"type": "Point", "coordinates": [-40.067880307982215, -26.5454143518378]}}, {"type": "Feature", "properties": {"norad_id": 66501, "name": "STARLINK-35897", "group": "last-30-days", "lat": 7.351415061372815, "lon": 115.10467437168221, "alt_km": 442.2393995172579, "timestamp": "2025-12-15T20:48:52.612810+00:00", "meta": {"OBJECT_NAME": "STARLINK-35897", "OBJECT_ID": "2025-263S", "EPOCH": "2025-12-14T20:00:06.000192", "MEAN_MOTION": 15.40653693, "ECCENTRICITY": 0.00014742, "INCLINATION": 43, "RA_OF_ASC_NODE": 113.1061, "ARG_OF_PERICENTER": 284.5148, "MEAN_ANOMALY": 105.0005, "EPHEMERIS_TYPE": 0, "CLASSIFICATION_TYPE": "U", "NORAD_CAT_ID": 66501, "ELEMENT_SET_NO": 999, "REV_AT_EPOCH": 597, "BSTAR": 0.0020553186, "MEAN_MOTION_DOT": 0.00086397, "MEAN_MOTION_DDOT": 0}, "tle": {"line1": "1 66501U 25263S   25348.83340278  .00086397  00000+0  20553-2 0  9992", "line2": "2 66501  43.0000 113.1061 0001474 284.5148 105.0005 15.40653693  5972"}}, "geometry": {"type": "Point", "coordinates": [115.10467437168221, 7.351415061372815]}}, {"type": "Feature", "properties": {"norad_id": 66502, "name": "STARLINK-35922", "group": "last-30-days", "lat": 14.130505930853925, "lon": -88.89194954808252, "alt_km": 412.1803918909409, "timestamp": "2025-12-15T20:48:52.612820+00:00", "meta": {"OBJECT_NAME": "STARLINK-35922", "OBJECT_ID": "2025-263T", "EPOCH": "2025-12-13T18:40:05.847744", "MEAN_MOTION": 15.50532408, "ECCENTRICITY": 0.00014149, "INCLINATION": 43.0006, "RA_OF_ASC_NODE": 119.0096, "ARG_OF_PERICENTER": 287.71, "MEAN_ANOMALY": 72.3606, "EPHEMERIS_TYPE": 0, "CLASSIFICATION_TYPE": "U", "NORAD_CAT_ID": 66502, "ELEMENT_SET_NO": 999, "REV_AT_EPOCH": 572, "BSTAR": 0.0020202122, "MEAN_MOTION_DOT": 0.00119805, "MEAN_MOTION_DDOT": 0}, "tle": {"line1": "1 66502U 25263T   25347.77784546  .00119805  00000+0  20202-2 0  9997", "line2": "2 66502  43.0006 119.0096 0001414 287.7100  72.3606 15.50532408  5726"}}, "geometry": {"type": "Point", "coordinates": [-88.89194954808252, 14.130505930853925]}}, {"type": "Feature", "properties": {"norad_id": 66503, "name": "STARLINK-35917", "group": "last-30-days", "lat": 30.524582324796295, "lon": 146.30717095958727, "alt_km": 439.4243188109249, "timestamp": "2025-12-15T20:48:52.612830+00:00", "meta": {"OBJECT_NAME": "STARLINK-35917", "OBJECT_ID": "2025-263U", "EPOCH": "2025-12-14T20:00:06.000192", "MEAN_MOTION": 15.40652611, "ECCENTRICITY": 0.0001836, "INCLINATION": 43.0001, "RA_OF_ASC_NODE": 113.0142, "ARG_OF_PERICENTER": 280.616, "MEAN_ANOMALY": 146.2112, "EPHEMERIS_TYPE": 0, "CLASSIFICATION_TYPE": "U", "NORAD_CAT_ID": 66503, "ELEMENT_SET_NO": 999, "REV_AT_EPOCH": 597, "BSTAR": 0.0020820193, "MEAN_MOTION_DOT": 0.00087534, "MEAN_MOTION_DDOT": 0}, "tle": {"line1": "1 66503U 25263U   25348.83340278  .00087534  00000+0  20820-2 0  9995", "line2": "2 66503  43.0001 113.0142 0001836 280.6160 146.2112 15.40652611  5972"}}, "geometry": {"type": "Point", "coordinates": [146.30717095958727, 30.524582324796295]}}, {"type": "Feature", "properties": {"norad_id": 66504, "name": "STARLINK-35916", "group": "last-30-days", "lat": 30.452582236786007, "lon": -110.51502192465459, "alt_km": 439.32589054101754, "timestamp": "2025-12-15T20:48:52.612840+00:00", "meta": {"OBJECT_NAME": "STARLINK-35916", "OBJECT_ID": "2025-263V", "EPOCH": "2025-12-14T10:01:00.331680", "MEAN_MOTION": 15.40690154, "ECCENTRICITY": 9.839e-05, "INCLINATION": 42.9953, "RA_OF_ASC_NODE": 116.9698, "ARG_OF_PERICENTER": 265.9506, "MEAN_ANOMALY": 94.1238, "EPHEMERIS_TYPE": 0, "CLASSIFICATION_TYPE": "U", "NORAD_CAT_ID": 66504, "ELEMENT_SET_NO": 999, "REV_AT_EPOCH": 580, "BSTAR": 0.001204367, "MEAN_MOTION_DOT": 0.00050322, "MEAN_MOTION_DDOT": 0}, "tle": {"line1": "1 66504U 25263V   25348.41736495  .00050322  00000+0  12044-2 0  9994", "line2": "2 66504  42.9953 116.9698 0000983 265.9506  94.1238 15.40690154  5803"}}, "geometry": {"type": "Point", "coordinates": [-110.51502192465459, 30.452582236786007]}}, {"type": "Feature", "properties": {"norad_id": 66505, "name": "STARLINK-34766", "group": "last-30-days", "lat": 14.756867812083458, "lon": -89.64358113353855, "alt_km": 411.29916665339715, "timestamp": "2025-12-15T20:48:52.612850+00:00", "meta": {"OBJECT_NAME": "STARLINK-34766", "OBJECT_ID": "2025-263W", "EPOCH": "2025-12-12T17:56:57.882624", "MEAN_MOTION": 15.50613801, "ECCENTRICITY": 0.00016181, "INCLINATION": 42.9974, "RA_OF_ASC_NODE": 125.0394, "ARG_OF_PERICENTER": 278.9286, "MEAN_ANOMALY": 81.1391, "EPHEMERIS_TYPE": 0, "CLASSIFICATION_TYPE": "U", "NORAD_CAT_ID": 66505, "ELEMENT_SET_NO": 999, "REV_AT_EPOCH": 556, "BSTAR": 0.0019225717, "MEAN_MOTION_DOT": 0.00114249, "MEAN_MOTION_DDOT": 0}, "tle": {"line1": "1 66505U 25263W   25346.74789216  .00114249  00000+0  19226-2 0  9996", "line2": "2 66505  42.9974 125.0394 0001618 278.9286  81.1391 15.50613801  5560"}}, "geometry": {"type": "Point", "coordinates": [-89.64358113353855, 14.756867812083458]}}]}